CAPELLA-11 (ACADIA-1)   
1 57693U 23126A   26192.95697390  .00002295  00000+0  29447-3 0  9998
2 57693  53.0124  77.3551 0002531 139.8162 220.3005 14.84836023155806
CAPELLA-14 (ACADIA-4)   
1 59444U 24066C   26191.40113345  .00008048  00000+0  51362-3 0  9993
2 59444  45.6019 133.0062 0000256 292.3900  67.6958 15.09192985115991
CAPELLA-13 (ACADIA-3)   
1 60419U 24142A   26193.69566193  .00002208  00000+0  26601-3 0  9998
2 60419  53.0059 306.2230 0001355  93.3290 266.7845 14.87648727104209
CAPELLA-15 (ACADIA-5)   
1 60544U 24149CE  26193.26428250  .00001941  00000+0  19497-3 0  9996
2 60544  97.6768 265.5399 0003805 352.3525   7.7636 14.92404893103595
CAPELLA-17 (ACADIA-7)   
1 64583U 25135BH  26193.76457737  .00003026  00000+0  30701-3 0  9993
2 64583  97.7705 307.0089 0004044 260.4299  99.6462 14.91605376 57666
CAPELLA-16 (ACADIA-6)   
1 65318U 25188D   26193.81009470  .00003896  00000+0  37038-3 0  9996
2 65318  97.7379 268.5776 0005571 142.7555 217.4053 14.94033285 47748
CAPELLA-19 (ACADIA-9)   
1 67384U 26004X   26193.43901790  .00002573  00000+0  29585-3 0  9992
2 67384  97.7978 191.3637 0001642  91.1646 268.9758 14.86648598 27022
CAPELLA-18 (ACADIA-8)   
1 67385U 26004Y   26193.58367698  .00000631  00000+0  77127-4 0  9991
2 67385  97.8019 191.6514 0001534  87.3499 272.7892 14.86636458 27057
CAPELLA-20 (ACADIA-10)  
1 68485U 26067BX  26193.78364953  .00003566  00000+0  36022-3 0  9993
2 68485  97.7586 151.6711 0000844 145.2453 214.8821 14.91670391 15549
