{"fetched_at":"2026-07-13T07:48:10.342Z","source":"https://celestrak.org/NORAD/elements/gp.php?NAME=CAPELLA&FORMAT=JSON","constellation":"capella","records":[{"OBJECT_NAME":"CAPELLA-11 (ACADIA-1)","OBJECT_ID":"2023-126A","EPOCH":"2026-07-11T22:58:02.544960","CLASSIFICATION_TYPE":"U","MEAN_MOTION":14.84836023,"ECCENTRICITY":0.0002531,"INCLINATION":53.0124,"RA_OF_ASC_NODE":77.3551,"ARG_OF_PERICENTER":139.8162,"MEAN_ANOMALY":220.3005,"EPHEMERIS_TYPE":0,"NORAD_CAT_ID":57693,"ELEMENT_SET_NO":999,"REV_AT_EPOCH":15580,"BSTAR":0.00029447,"MEAN_MOTION_DOT":0.00002295,"MEAN_MOTION_DDOT":0},{"OBJECT_NAME":"CAPELLA-14 (ACADIA-4)","OBJECT_ID":"2024-066C","EPOCH":"2026-07-10T09:37:37.930080","CLASSIFICATION_TYPE":"U","MEAN_MOTION":15.09192985,"ECCENTRICITY":0.00002568,"INCLINATION":45.6019,"RA_OF_ASC_NODE":133.0062,"ARG_OF_PERICENTER":292.39,"MEAN_ANOMALY":67.6958,"EPHEMERIS_TYPE":0,"NORAD_CAT_ID":59444,"ELEMENT_SET_NO":999,"REV_AT_EPOCH":11599,"BSTAR":0.00051362493,"MEAN_MOTION_DOT":0.00008048,"MEAN_MOTION_DDOT":0},{"OBJECT_NAME":"CAPELLA-13 (ACADIA-3)","OBJECT_ID":"2024-142A","EPOCH":"2026-07-12T16:41:45.190752","CLASSIFICATION_TYPE":"U","MEAN_MOTION":14.87648727,"ECCENTRICITY":0.0001355,"INCLINATION":53.0059,"RA_OF_ASC_NODE":306.223,"ARG_OF_PERICENTER":93.329,"MEAN_ANOMALY":266.7845,"EPHEMERIS_TYPE":0,"NORAD_CAT_ID":60419,"ELEMENT_SET_NO":999,"REV_AT_EPOCH":10420,"BSTAR":0.00026601,"MEAN_MOTION_DOT":0.00002208,"MEAN_MOTION_DDOT":0},{"OBJECT_NAME":"CAPELLA-15 (ACADIA-5)","OBJECT_ID":"2024-149CE","EPOCH":"2026-07-12T06:20:34.008000","CLASSIFICATION_TYPE":"U","MEAN_MOTION":14.92404893,"ECCENTRICITY":0.00038053,"INCLINATION":97.6768,"RA_OF_ASC_NODE":265.5399,"ARG_OF_PERICENTER":352.3525,"MEAN_ANOMALY":7.7636,"EPHEMERIS_TYPE":0,"NORAD_CAT_ID":60544,"ELEMENT_SET_NO":999,"REV_AT_EPOCH":10359,"BSTAR":0.00019496627,"MEAN_MOTION_DOT":0.00001941,"MEAN_MOTION_DDOT":0},{"OBJECT_NAME":"CAPELLA-17 (ACADIA-7)","OBJECT_ID":"2025-135BH","EPOCH":"2026-07-12T18:20:59.484768","CLASSIFICATION_TYPE":"U","MEAN_MOTION":14.91605376,"ECCENTRICITY":0.0004044,"INCLINATION":97.7705,"RA_OF_ASC_NODE":307.0089,"ARG_OF_PERICENTER":260.4299,"MEAN_ANOMALY":99.6462,"EPHEMERIS_TYPE":0,"NORAD_CAT_ID":64583,"ELEMENT_SET_NO":999,"REV_AT_EPOCH":5766,"BSTAR":0.00030701,"MEAN_MOTION_DOT":0.00003026,"MEAN_MOTION_DDOT":0},{"OBJECT_NAME":"CAPELLA-16 (ACADIA-6)","OBJECT_ID":"2025-188D","EPOCH":"2026-07-12T19:26:32.182080","CLASSIFICATION_TYPE":"U","MEAN_MOTION":14.94033285,"ECCENTRICITY":0.0005571,"INCLINATION":97.7379,"RA_OF_ASC_NODE":268.5776,"ARG_OF_PERICENTER":142.7555,"MEAN_ANOMALY":217.4053,"EPHEMERIS_TYPE":0,"NORAD_CAT_ID":65318,"ELEMENT_SET_NO":999,"REV_AT_EPOCH":4774,"BSTAR":0.00037038,"MEAN_MOTION_DOT":0.00003896,"MEAN_MOTION_DDOT":0},{"OBJECT_NAME":"CAPELLA-19 (ACADIA-9)","OBJECT_ID":"2026-004X","EPOCH":"2026-07-12T10:32:11.146560","CLASSIFICATION_TYPE":"U","MEAN_MOTION":14.86648598,"ECCENTRICITY":0.00016429,"INCLINATION":97.7978,"RA_OF_ASC_NODE":191.3637,"ARG_OF_PERICENTER":91.1646,"MEAN_ANOMALY":268.9758,"EPHEMERIS_TYPE":0,"NORAD_CAT_ID":67384,"ELEMENT_SET_NO":999,"REV_AT_EPOCH":2702,"BSTAR":0.0002958501,"MEAN_MOTION_DOT":0.00002573,"MEAN_MOTION_DDOT":0},{"OBJECT_NAME":"CAPELLA-18 (ACADIA-8)","OBJECT_ID":"2026-004Y","EPOCH":"2026-07-12T14:00:29.691072","CLASSIFICATION_TYPE":"U","MEAN_MOTION":14.86636458,"ECCENTRICITY":0.0001534,"INCLINATION":97.8019,"RA_OF_ASC_NODE":191.6514,"ARG_OF_PERICENTER":87.3499,"MEAN_ANOMALY":272.7892,"EPHEMERIS_TYPE":0,"NORAD_CAT_ID":67385,"ELEMENT_SET_NO":999,"REV_AT_EPOCH":2705,"BSTAR":0.000077127,"MEAN_MOTION_DOT":0.00000631,"MEAN_MOTION_DDOT":0},{"OBJECT_NAME":"CAPELLA-20 (ACADIA-10)","OBJECT_ID":"2026-067BX","EPOCH":"2026-07-12T18:48:27.319392","CLASSIFICATION_TYPE":"U","MEAN_MOTION":14.91670391,"ECCENTRICITY":0.0000844,"INCLINATION":97.7586,"RA_OF_ASC_NODE":151.6711,"ARG_OF_PERICENTER":145.2453,"MEAN_ANOMALY":214.8821,"EPHEMERIS_TYPE":0,"NORAD_CAT_ID":68485,"ELEMENT_SET_NO":999,"REV_AT_EPOCH":1554,"BSTAR":0.00036022,"MEAN_MOTION_DOT":0.00003566,"MEAN_MOTION_DDOT":0}]}
